TEVEL2-6                
1 63215U 25052F   26068.64958975  .00021046  00000+0  70909-3 0  9996
2 63215  97.4016 325.0381 0004769  95.6604 264.5181 15.30760889 54861
STARLINK-35774          
1 66283U 25247U   26068.63578590  .00024267  00000+0  82924-3 0  9998
2 66283  53.1571 191.8153 0001097  84.7187 275.3939 15.30182502 21029
